[
   {
      "name": "STARLINK-1032",
      "line1": "1 44737U 19074AA  21092.79114078  .00000827  00000-0  74450-4 0  9998",
      "line2": "2 44737  53.0578  15.6432 0001594  77.6017 282.5150 15.06395791 76881",
      "drg": 7.445,
      "inc": 53.0578,
      "ran": 15.6432,
      "ecc": 0.0001594,
      "aop": 77.6017,
      "man": 282.515,
      "mmo": 15.06395791,
      "sma": 6925.36146
   },
   {
      "name": "STARLINK-1033",
      "line1": "1 44738U 19074AB  21092.51100984  .00001682  00000-0  13179-3 0  9990",
      "line2": "2 44738  53.0569  16.9209 0001291  71.3927 288.7203 15.06396565 76835",
      "drg": 13.179,
      "inc": 53.0569,
      "ran": 16.9209,
      "ecc": 0.0001291,
      "aop": 71.3927,
      "man": 288.7203,
      "mmo": 15.06396565,
      "sma": 6925.35909
   },
   {
      "name": "STARLINK-1052",
      "line1": "1 44739U 19074AC  21092.85888370  .00003591  00000-0  25951-3 0  9992",
      "line2": "2 44739  53.0006  14.9402 0001703  70.6104 289.5068 15.06453360 76882",
      "drg": 25.951,
      "inc": 53.0006,
      "ran": 14.9402,
      "ecc": 0.0001703,
      "aop": 70.6104,
      "man": 289.5068,
      "mmo": 15.0645336,
      "sma": 6925.18502
   },
   {
      "name": "STARLINK-1035",
      "line1": "1 44740U 19074AD  21092.78745278 -.00000867  00000-0 -39302-4 0  9996",
      "line2": "2 44740  53.0562  15.6788 0001854  76.4480 283.6716 15.06397582 76882",
      "drg": -3.9302,
      "inc": 53.0562,
      "ran": 15.6788,
      "ecc": 0.0001854,
      "aop": 76.448,
      "man": 283.6716,
      "mmo": 15.06397582,
      "sma": 6925.35597
   },
   {
      "name": "STARLINK-1036",
      "line1": "1 44741U 19074AE  21092.79850846  .00000456  00000-0  49517-4 0  9997",
      "line2": "2 44741  53.0575  15.6053 0001592  82.0369 278.0801 15.06393557 76881",
      "drg": 4.9517,
      "inc": 53.0575,
      "ran": 15.6053,
      "ecc": 0.0001592,
      "aop": 82.0369,
      "man": 278.0801,
      "mmo": 15.06393557,
      "sma": 6925.36831
   },
   {
      "name": "STARLINK-1037",
      "line1": "1 44742U 19074AF  21092.85065294  .00004056  00000-0  28271-3 0  9993",
      "line2": "2 44742  52.9995  13.0698 0001122 111.3094 248.8014 15.07494613 76914",
      "drg": 28.271,
      "inc": 52.9995,
      "ran": 13.0698,
      "ecc": 0.0001122,
      "aop": 111.3094,
      "man": 248.8014,
      "mmo": 15.07494613,
      "sma": 6921.99576
   },
   {
      "name": "STARLINK-1038",
      "line1": "1 44743U 19074AG  21092.84827493 -.00000620  00000-0 -22753-4 0  9995",
      "line2": "2 44743  53.0569  35.4062 0001225  68.3530 291.7589 15.06391380 76704",
      "drg": -2.2753,
      "inc": 53.0569,
      "ran": 35.4062,
      "ecc": 0.0001225,
      "aop": 68.353,
      "man": 291.7589,
      "mmo": 15.0639138,
      "sma": 6925.37498
   },
   {
      "name": "STARLINK-1039",
      "line1": "1 44744U 19074AH  21092.85932891 -.00000896  00000-0 -41238-4 0  9990",
      "line2": "2 44744  53.0572  35.3341 0001523  81.1712 278.9450 15.06400675 76616",
      "drg": -4.1238,
      "inc": 53.0572,
      "ran": 35.3341,
      "ecc": 0.0001523,
      "aop": 81.1712,
      "man": 278.945,
      "mmo": 15.06400675,
      "sma": 6925.34649
   },
   {
      "name": "STARLINK-1041",
      "line1": "1 44746U 19074AK  21092.84458482 -.00000974  00000-0 -46481-4 0  9992",
      "line2": "2 44746  53.0573  35.4225 0001528  72.4368 287.6788 15.06394409 76614",
      "drg": -4.6481,
      "inc": 53.0573,
      "ran": 35.4225,
      "ecc": 0.0001528,
      "aop": 72.4368,
      "man": 287.6788,
      "mmo": 15.06394409,
      "sma": 6925.36569
   },
   {
      "name": "STARLINK-1042",
      "line1": "1 44747U 19074AL  21092.87409904  .00000823  00000-0  74140-4 0  9995",
      "line2": "2 44747  53.0583  35.2778 0001372  70.9179 289.1958 15.06391191 76629",
      "drg": 7.414,
      "inc": 53.0583,
      "ran": 35.2778,
      "ecc": 0.0001372,
      "aop": 70.9179,
      "man": 289.1958,
      "mmo": 15.06391191,
      "sma": 6925.37556
   },
   {
      "name": "STARLINK-1043",
      "line1": "1 44748U 19074AM  21092.57182573 -.00000993  00000-0 -47798-4 0  9992",
      "line2": "2 44748  53.0592  36.6334 0001111  56.9936 303.1159 15.06393422 76572",
      "drg": -4.7798,
      "inc": 53.0592,
      "ran": 36.6334,
      "ecc": 0.0001111,
      "aop": 56.9936,
      "man": 303.1159,
      "mmo": 15.06393422,
      "sma": 6925.36872
   },
   {
      "name": "STARLINK-1044",
      "line1": "1 44749U 19074AN  21092.80219089  .00000592  00000-0  58624-4 0  9995",
      "line2": "2 44749  53.0579  15.5990 0001840  81.4501 278.6697 15.06396040 76888",
      "drg": 5.8624,
      "inc": 53.0579,
      "ran": 15.599,
      "ecc": 0.000184,
      "aop": 81.4501,
      "man": 278.6697,
      "mmo": 15.0639604,
      "sma": 6925.3607
   },
   {
      "name": "STARLINK-1045",
      "line1": "1 44750U 19074AP  21092.89047623  .00233785  36123-4  31493-3 0  9994",
      "line2": "2 44750  52.9805 274.9076 0009019 274.5953  85.4048 16.05932501 78275",
      "drg": 31.493,
      "inc": 52.9805,
      "ran": 274.9076,
      "ecc": 0.0009019,
      "aop": 274.5953,
      "man": 85.4048,
      "mmo": 16.05932501,
      "sma": 6636.16206
   },
   {
      "name": "STARLINK-1046",
      "line1": "1 44751U 19074AQ  21092.32118590  .00000935  00000-0  81649-4 0  9994",
      "line2": "2 44751  53.0584  37.7626 0001286  70.0326 290.0802 15.06390467 76537",
      "drg": 8.1649,
      "inc": 53.0584,
      "ran": 37.7626,
      "ecc": 0.0001286,
      "aop": 70.0326,
      "man": 290.0802,
      "mmo": 15.06390467,
      "sma": 6925.37778
   },
   {
      "name": "STARLINK-1047",
      "line1": "1 44752U 19074AR  21092.80588203  .00000379  00000-0  44341-4 0  9990",
      "line2": "2 44752  53.0590  15.5810 0001625  75.8234 284.2936 15.06399128 76886",
      "drg": 4.4341,
      "inc": 53.059,
      "ran": 15.581,
      "ecc": 0.0001625,
      "aop": 75.8234,
      "man": 284.2936,
      "mmo": 15.06399128,
      "sma": 6925.35123
   },
   {
      "name": "STARLINK-1048",
      "line1": "1 44753U 19074AS  21092.87776149 -.00000195  00000-0  58294-5 0  9996",
      "line2": "2 44753  53.0580 355.2535 0001854  87.0437 273.0764 15.06395624 77173",
      "drg": 0.58294,
      "inc": 53.058,
      "ran": 355.2535,
      "ecc": 0.0001854,
      "aop": 87.0437,
      "man": 273.0764,
      "mmo": 15.06395624,
      "sma": 6925.36197
   },
   {
      "name": "STARLINK-1049",
      "line1": "1 44754U 19074AT  21092.88143990  .00001137  00000-0  95200-4 0  9993",
      "line2": "2 44754  53.0582 355.2375 0001951  80.3395 279.7814 15.06398092 77176",
      "drg": 9.52,
      "inc": 53.0582,
      "ran": 355.2375,
      "ecc": 0.0001951,
      "aop": 80.3395,
      "man": 279.7814,
      "mmo": 15.06398092,
      "sma": 6925.35441
   },
   {
      "name": "STARLINK-1050",
      "line1": "1 44755U 19074AU  21092.86301444  .00001139  00000-0  95328-4 0  9995",
      "line2": "2 44755  53.0577  35.3384 0002163  53.9880 306.1310 15.06404270 77169",
      "drg": 9.5328,
      "inc": 53.0577,
      "ran": 35.3384,
      "ecc": 0.0002163,
      "aop": 53.988,
      "man": 306.131,
      "mmo": 15.0640427,
      "sma": 6925.33547
   },
   {
      "name": "STARLINK-1051",
      "line1": "1 44756U 19074AV  21092.88513087 -.00000501  00000-0 -14722-4 0  9999",
      "line2": "2 44756  53.0581 355.2209 0001832  81.3986 278.7211 15.06398519 77172",
      "drg": -1.4722,
      "inc": 53.0581,
      "ran": 355.2209,
      "ecc": 0.0001832,
      "aop": 81.3986,
      "man": 278.7211,
      "mmo": 15.06398519,
      "sma": 6925.3531
   },
   {
      "name": "STARLINK-1034",
      "line1": "1 44757U 19074AW  21092.88329104 -.00000700  00000-0 -28115-4 0  9997",
      "line2": "2 44757  53.0551  15.2498 0001424  69.7930 290.3212 15.06396280 76891",
      "drg": -2.8115,
      "inc": 53.0551,
      "ran": 15.2498,
      "ecc": 0.0001424,
      "aop": 69.793,
      "man": 290.3212,
      "mmo": 15.0639628,
      "sma": 6925.35996
   },
   {
      "name": "STARLINK-1053",
      "line1": "1 44758U 19074AX  21092.88881853 -.00000914  00000-0 -42459-4 0  9996",
      "line2": "2 44758  53.0567  35.2181 0001375  68.7453 291.3682 15.06390667 76620",
      "drg": -4.2459,
      "inc": 53.0567,
      "ran": 35.2181,
      "ecc": 0.0001375,
      "aop": 68.7453,
      "man": 291.3682,
      "mmo": 15.06390667,
      "sma": 6925.37716
   },
   {
      "name": "STARLINK-1054",
      "line1": "1 44759U 19074AY  21092.54971135 -.00000303  00000-0 -14215-5 0  9995",
      "line2": "2 44759  53.0572  36.7461 0001330  66.7494 293.3635 15.06396516 74210",
      "drg": -0.14215,
      "inc": 53.0572,
      "ran": 36.7461,
      "ecc": 0.000133,
      "aop": 66.7494,
      "man": 293.3635,
      "mmo": 15.06396516,
      "sma": 6925.35924
   },
   {
      "name": "STARLINK-1055",
      "line1": "1 44760U 19074AZ  21092.86669878 -.00000759  00000-0 -32043-4 0  9993",
      "line2": "2 44760  53.0579  35.3164 0001117  55.2571 304.8523 15.06397378 76624",
      "drg": -3.2043,
      "inc": 53.0579,
      "ran": 35.3164,
      "ecc": 0.0001117,
      "aop": 55.2571,
      "man": 304.8523,
      "mmo": 15.06397378,
      "sma": 6925.35659
   },
   {
      "name": "STARLINK-1056",
      "line1": "1 44761U 19074BA  21092.54602551 -.00000919  00000-0 -42853-4 0  9992",
      "line2": "2 44761  53.0574  36.7598 0001139  84.0440 276.0679 15.06396379 76571",
      "drg": -4.2853,
      "inc": 53.0574,
      "ran": 36.7598,
      "ecc": 0.0001139,
      "aop": 84.044,
      "man": 276.0679,
      "mmo": 15.06396379,
      "sma": 6925.35966
   }
]